STARLINK-30956          
1 58481U 23186J   26068.93776030  .00002079  00000+0  87184-4 0  9992
2 58481  43.0024  39.5665 0001593 265.8868  94.1802 15.26738843126196
MESON-1                 
1 59131U 24043AK  26068.90019075  .00008544  00000+0  29748-3 0  9998
2 59131  97.5469 205.2839 0009545 227.1432 132.9007 15.29893494111890
